{
    "links": {
        "self": "http://www.neowsapp.com/rest/v1/neo/3662167?api_key=iIulBulltgU6a56xZRHN4H3l9WmuAYTsLGpBGhQ2"
    },
    "id": "3662167",
    "neo_reference_id": "3662167",
    "name": "(2014 DE)",
    "designation": "2014 DE",
    "nasa_jpl_url": "http://ssd.jpl.nasa.gov/sbdb.cgi?sstr=3662167",
    "absolute_magnitude_h": 23.5,
    "estimated_diameter": {
        "kilometers": {
            "estimated_diameter_min": 0.0530340723,
            "estimated_diameter_max": 0.1185877909
        },
        "meters": {
            "estimated_diameter_min": 53.0340723319,
            "estimated_diameter_max": 118.5877908577
        },
        "miles": {
            "estimated_diameter_min": 0.0329538346,
            "estimated_diameter_max": 0.0736870142
        },
        "feet": {
            "estimated_diameter_min": 173.9963058693,
            "estimated_diameter_max": 389.0675677576
        }
    },
    "is_potentially_hazardous_asteroid": false,
    "close_approach_data": [
        {
            "close_approach_date": "2006-01-20",
            "close_approach_date_full": "2006-Jan-20 20:22",
            "epoch_date_close_approach": 1137788520000,
            "relative_velocity": {
                "kilometers_per_second": "15.3736140972",
                "kilometers_per_hour": "55345.010749857",
                "miles_per_hour": "34389.2373739875"
            },
            "miss_distance": {
                "astronomical": "0.2296715282",
                "lunar": "89.3422244698",
                "kilometers": "34358371.418364934",
                "miles": "21349302.0190827292"
            },
            "orbiting_body": "Earth"
        },
        {
            "close_approach_date": "2013-01-26",
            "close_approach_date_full": "2013-Jan-26 12:16",
            "epoch_date_close_approach": 1359202560000,
            "relative_velocity": {
                "kilometers_per_second": "24.0860893124",
                "kilometers_per_hour": "86709.9215246555",
                "miles_per_hour": "53878.1731829172"
            },
            "miss_distance": {
                "astronomical": "0.4741418758",
                "lunar": "184.4411896862",
                "kilometers": "70930614.697484546",
                "miles": "44074240.2233408948"
            },
            "orbiting_body": "Earth"
        },
        {
            "close_approach_date": "2014-02-11",
            "close_approach_date_full": "2014-Feb-11 01:04",
            "epoch_date_close_approach": 1392080640000,
            "relative_velocity": {
                "kilometers_per_second": "11.6778455524",
                "kilometers_per_hour": "42040.2439886458",
                "miles_per_hour": "26122.1727161671"
            },
            "miss_distance": {
                "astronomical": "0.2101803441",
                "lunar": "81.7601538549",
                "kilometers": "31442531.793227067",
                "miles": "19537483.2911728446"
            },
            "orbiting_body": "Earth"
        },
        {
            "close_approach_date": "2015-04-19",
            "close_approach_date_full": "2015-Apr-19 13:18",
            "epoch_date_close_approach": 1429449480000,
            "relative_velocity": {
                "kilometers_per_second": "13.1634646327",
                "kilometers_per_hour": "47388.4726776743",
                "miles_per_hour": "29445.3540368582"
            },
            "miss_distance": {
                "astronomical": "0.331651998",
                "lunar": "129.012627222",
                "kilometers": "49614432.48204426",
                "miles": "30828978.785600388"
            },
            "orbiting_body": "Earth"
        },
        {
            "close_approach_date": "2021-01-22",
            "close_approach_date_full": "2021-Jan-22 03:59",
            "epoch_date_close_approach": 1611287940000,
            "relative_velocity": {
                "kilometers_per_second": "13.5599381453",
                "kilometers_per_hour": "48815.7773230973",
                "miles_per_hour": "30332.2256372323"
            },
            "miss_distance": {
                "astronomical": "0.1878972559",
                "lunar": "73.0920325451",
                "kilometers": "28109029.261484933",
                "miles": "17466140.8673727554"
            },
            "orbiting_body": "Earth"
        }
    ],
    "orbital_data": {
        "orbit_id": "4",
        "orbit_determination_date": "2017-04-06 08:42:27",
        "first_observation_date": "2014-02-18",
        "last_observation_date": "2014-02-19",
        "data_arc_in_days": 1,
        "observations_used": 15,
        "orbit_uncertainty": "8",
        "minimum_orbit_intersection": ".17235",
        "jupiter_tisserand_invariant": "6.408",
        "epoch_osculation": "2456707.5",
        "eccentricity": ".3349946093692842",
        "semi_major_axis": ".9193120935467238",
        "inclination": "19.11181726974559",
        "ascending_node_longitude": "146.4733944531423",
        "orbital_period": "321.953304354412",
        "perihelion_distance": ".6113474978805803",
        "perihelion_argument": "197.5980905132944",
        "aphelion_distance": "1.227276689212867",
        "perihelion_time": "2456571.408544615705",
        "mean_anomaly": "152.1740055955876",
        "mean_motion": "1.118174577278777",
        "equinox": "J2000",
        "orbit_class": {
            "orbit_class_type": "ATE",
            "orbit_class_description": "Near-Earth asteroid orbits similar to that of 2062 Aten",
            "orbit_class_range": "a (semi-major axis) < 1.0 AU; q (perihelion) > 0.983 AU"
        }
    },
    "is_sentry_object": false
}